SENTINEL-6              
1 46984U 20086A   23307.18682765 -.00000053  00000+0  36164-4 0  9997
2 46984  66.0415 322.7528 0007920 268.2475  91.7633 12.80930890137871
